STARLINK-36256          
1 67103U 25299B   26009.00003472  .00013342  00000+0  32626-3 0  9991
2 67103  43.0004 152.9133 0001653 272.2472 269.7513 15.40683711  5188
STARLINK-36258          
1 67104U 25299C   26008.42388675  .00128971  00000+0  21603-2 0  9995
2 67104  42.9999 155.8986 0004433 291.0097  69.0289 15.50674912  3823
STARLINK-36261          
1 67105U 25299D   26009.09916195  .00037127  00000+0  89056-3 0  9993
2 67105  43.0039 152.3696 0003895 266.3272  93.7139 15.40734186  3920
STARLINK-36259          
1 67106U 25299E   26009.25001157  .00068475  00000+0  16347-2 0  9997
2 67106  42.9998 151.2611 0001876 273.9853 303.2556 15.40645390  5230
STARLINK-36196          
1 67107U 25299F   26007.71462869  .00094191  00000+0  15878-2 0  9990
2 67107  43.0000 160.0353 0001918 268.6018  91.4623 15.50654455  3714
STARLINK-36208          
1 67108U 25299G   26008.68017419  .00094111  00000+0  15893-2 0  9994
2 67108  42.9993 154.3797 0000916 250.6584 109.4177 15.50605382  3863
STARLINK-35764          
1 67109U 25299H   26009.25001157  .00064394  00000+0  15383-2 0  9995
2 67109  43.0002 151.3816 0001547 272.3170 255.1546 15.40650170  5123
STARLINK-35781          
1 67110U 25299J   26007.39119240  .00017425  00000+0  30969-3 0  9994
2 67110  42.9989 161.9098 0002324 326.7971  33.2743 15.49882893  3662
STARLINK-35875          
1 67111U 25299K   26008.42182772  .00095912  00000+0  16179-2 0  9993
2 67111  43.0000 155.8834 0001634 269.8071  90.2602 15.50627989  3820
STARLINK-35906          
1 67112U 25299L   26008.48555732  .00088549  00000+0  14974-2 0  9999
2 67112  43.0004 155.5002 0001838 270.8240  89.2409 15.50592700  3831
STARLINK-35789          
1 67113U 25299M   26009.25001157  .00091858  00000+0  21883-2 0  9997
2 67113  42.9999 151.1083 0002107 261.2512  18.2283 15.40582310  5121
STARLINK-36180          
1 67114U 25299N   26008.67811591  .00114176  00000+0  19216-2 0  9990
2 67114  43.0007 154.3642 0001669 272.9280  87.1389 15.50610458  3860
